EYESAT A (AO-27)        
1 22825U 93061C   26131.77915829  .00000049  00000+0  35602-4 0  9991
2 22825  98.6892 199.2025 0007989 199.7427 160.3448 14.30932053701793
ITAMSAT (IO-26)         
1 22826U 93061D   26131.41989265  .00000042  00000+0  32539-4 0  9997
2 22826  98.6841 198.7571 0008801 184.3139 175.7969 14.31357848702054
RADIO ROSTO (RS15)      
1 23439U 94085A   26131.84214708 -.00000043  00000+0 -25161-4 0  9991
2 23439  64.8202   1.9983 0154933  10.5269 349.8838 11.27583736291809
JAS-2 (FO-29)           
1 24278U 96046B   26131.86054249 -.00000037  00000+0 -20357-5 0  9992
2 24278  98.5280 345.7010 0349665 190.5492 168.8176 13.53272273468257
FORTE                   
1 24920U 97047A   26131.38882161  .00000127  00000+0  74352-4 0  9998
2 24920  69.9519  97.1367 0023587 322.4099  37.5373 14.27929372493432
TECHSAT 1B (GO-32)      
1 25397U 98043D   26131.67842299  .00000041  00000+0  37876-4 0  9999
2 25397  99.0064 123.5185 0001082  15.2790 344.8420 14.24421092446138
ISS (ZARYA)             
1 25544U 98067A   26131.68281700  .00005060  00000+0  99294-4 0  9992
2 25544  51.6311 120.8028 0007472  48.2126 311.9500 15.49186980566099
IMAGE                   
1 26113U 00017A   26131.51486742  .00000008  00000+0 -20584-1 0  9999
2 26113  94.2002 314.8870 7459903 291.9767   8.1989  1.68665748160880
CLUSTER II-FM7 (SAMBA)  
1 26410U 00041A   26130.20719946  .00003007  00000+0  00000+0 0  9996
2 26410 149.7574  44.0320 9007788 260.7661   0.4598  0.44818912 20131
CLUSTER II-FM8 (TANGO)  
1 26464U 00045B   26130.14160082  .00003120  00000+0  00000+0 0  9999
2 26464 150.0346  45.1293 9013438 261.7017   0.4740  0.44409144 20129
ODIN                    
1 26702U 01007A   26131.83365727  .00079680  00000+0  77756-3 0  9993
2 26702  97.3938 170.7272 0001894 200.1866 159.9320 15.65951529383695
OMNI-M1                 
1 26857U 01026A   26131.53751176 -.00000020  00000+0  00000+0 0  9996
2 26857  44.8444 253.7114 0015492  47.0887 313.0619  3.92401500204133
PCSAT (NO-44)           
1 26931U 01043C   26131.83952520  .00000069  00000+0  56573-4 0  9990
2 26931  67.0513 338.2840 0006294 263.6849  96.3536 14.31941610285245
PROBA-1                 
1 26958U 01049B   26131.82664390  .00001702  00000+0  11365-3 0  9993
2 26958  97.9615 139.0919 0053778 245.4091 114.1526 15.07358891338142
SAUDISAT 1C (SO-50)     
1 27607U 02058C   26131.40363783  .00000664  00000+0  96093-4 0  9990
2 27607  64.5523 242.7840 0075631 269.1895  90.0545 14.82967825259009
CORIOLIS                
1 27640U 03001A   26131.76665208  .00000074  00000+0  55564-4 0  9995
2 27640  98.7137 139.2067 0013223 321.9133  38.1107 14.19934528209059
CUTE-1 (CO-55)          
1 27844U 03031E   26131.01616769  .00000204  00000+0  10731-3 0  9991
2 27844  98.6748 140.0418 0008392 297.0013  63.0309 14.24312209186386
CUBESAT XI-IV (CO-57)   
1 27848U 03031J   26131.75915338  .00000161  00000+0  89832-4 0  9991
2 27848  98.6780 140.5174 0008530 315.4592  44.5900 14.23600757186198
MOZHAETS 4 (RS22)       
1 27939U 03042A   26131.82463779  .00000722  00000+0  11960-3 0  9998
2 27939  98.3476 315.1586 0011958  29.8843  94.5585 14.73402239210190
