OBJECT_NAME,OBJECT_ID,EPOCH,MEAN_MOTION,ECCENTRICITY,INCLINATION,RA_OF_ASC_NODE,ARG_OF_PERICENTER,MEAN_ANOMALY,EPHEMERIS_TYPE,CLASSIFICATION_TYPE,NORAD_CAT_ID,ELEMENT_SET_NO,REV_AT_EPOCH,BSTAR,MEAN_MOTION_DOT,MEAN_MOTION_DDOT
EYESAT A (AO-27),1993-061C,2026-05-11T18:41:59.276256,14.30932053,.0007989,98.6892,199.2025,199.7427,160.3448,0,U,22825,999,70179,.35602E-4,.49E-6,0
ITAMSAT (IO-26),1993-061D,2026-05-11T10:04:38.724960,14.31357848,.00088013,98.6841,198.7571,184.3139,175.7969,0,U,22826,999,70205,.32538856E-4,.42E-6,0
RADIO ROSTO (RS15),1994-085A,2026-05-11T20:12:41.507712,11.27583736,.0154933,64.8202,1.9983,10.5269,349.8838,0,U,23439,999,29180,-.25161E-4,-.43E-6,0
JAS-2 (FO-29),1996-046B,2026-05-11T20:39:10.871136,13.53272273,.0349665,98.5280,345.7010,190.5492,168.8176,0,U,24278,999,46825,-.20357E-5,-.37E-6,0
FORTE,1997-047A,2026-05-11T09:19:54.187104,14.27929372,.00235873,69.9519,97.1367,322.4099,37.5373,0,U,24920,999,49343,.74352483E-4,.127E-5,0
TECHSAT 1B (GO-32),1998-043D,2026-05-11T16:16:55.746336,14.24421092,.0001082,99.0064,123.5185,15.2790,344.8420,0,U,25397,999,44613,.37876E-4,.41E-6,0
ISS (ZARYA),1998-067A,2026-05-11T16:23:15.388800,15.49186980,.0007472,51.6311,120.8028,48.2126,311.9500,0,U,25544,999,56609,.99294E-4,.506E-4,0
IMAGE,2000-017A,2026-05-11T12:21:24.545088,1.68665748,.74599038,94.2002,314.8870,291.9767,8.1989,0,U,26113,999,16088,-.20584314E-1,.8E-7,0
CLUSTER II-FM7 (SAMBA),2000-041A,2026-05-10T04:58:22.033344,0.44818912,.90077886,149.7574,44.0320,260.7661,0.4598,0,U,26410,999,2013,0,.3007E-4,0
CLUSTER II-FM8 (TANGO),2000-045B,2026-05-10T03:23:54.310848,0.44409144,.90134383,150.0346,45.1293,261.7017,0.4740,0,U,26464,999,2012,0,.312E-4,0
ODIN,2001-007A,2026-05-11T20:00:27.988128,15.65951529,.0001894,97.3938,170.7272,200.1866,159.9320,0,U,26702,999,38369,.77756E-3,.7968E-3,0
OMNI-M1,2001-026A,2026-05-11T12:54:01.016064,3.92401500,.0015492,44.8444,253.7114,47.0887,313.0619,0,U,26857,999,20413,0,-.2E-6,0
PCSAT (NO-44),2001-043C,2026-05-11T20:08:54.977280,14.31941610,.0006294,67.0513,338.2840,263.6849,96.3536,0,U,26931,999,28524,.56573E-4,.69E-6,0
PROBA-1,2001-049B,2026-05-11T19:50:22.032960,15.07358891,.0053778,97.9615,139.0919,245.4091,114.1526,0,U,26958,999,33814,.11365E-3,.1702E-4,0
SAUDISAT 1C (SO-50),2002-058C,2026-05-11T09:41:14.308512,14.82967825,.0075631,64.5523,242.7840,269.1895,90.0545,0,U,27607,999,25900,.96092981E-4,.664E-5,0
CORIOLIS,2003-001A,2026-05-11T18:23:58.739712,14.19934528,.0013223,98.7137,139.2067,321.9133,38.1107,0,U,27640,999,20905,.55564E-4,.74E-6,0
CUTE-1 (CO-55),2003-031E,2026-05-11T00:23:16.888416,14.24312209,.00083928,98.6748,140.0418,297.0013,63.0309,0,U,27844,999,18638,.10731345E-3,.204E-5,0
CUBESAT XI-IV (CO-57),2003-031J,2026-05-11T18:13:10.852032,14.23600757,.000853,98.6780,140.5174,315.4592,44.5900,0,U,27848,999,18619,.89832E-4,.161E-5,0
MOZHAETS 4 (RS22),2003-042A,2026-05-11T19:47:28.705056,14.73402239,.0011958,98.3476,315.1586,29.8843,94.5585,0,U,27939,999,21019,.1196E-3,.722E-5,0
